SL-14 R/B               
1 16792U 86046B   25362.40929848  .00000759  00000+0  84611-4 0  9995
2 16792  82.4819 147.5156 0024604 102.9428 257.4538 14.85502831115828
SL-14 R/B               
1 16882U 86055B   25362.60974806  .00000652  00000+0  72469-4 0  9991
2 16882  82.5192 193.4598 0018278 203.3589 221.3402 14.85546791108811
AJISAI (EGS)            
1 16908U 86061A   25362.57389137 -.00000090  00000+0  55814-4 0  9992
2 16908  50.0111 312.0287 0011317 105.6137  10.1907 12.44514459459143
COSMOS 1812             
1 17295U 87003A   25362.21240502  .00141076  00000+0  79111-3 0  9996
2 17295  82.4868 275.2295 0006074  65.1708 295.0189 15.78858994133092
SL-14 R/B               
1 17567U 87024B   25362.46856483  .00000799  00000+0  88300-4 0  9996
2 17567  82.5282 159.6786 0019334 133.5151 226.7676 14.86042010 77552
COSMOS 1833             
1 17589U 87027A   25362.64574428  .00000315  00000+0  19424-3 0  9993
2 17589  70.9170 115.3413 0023281 309.5868  50.3197 14.13030611   284
SL-16 R/B               
1 17590U 87027B   25362.61350254 -.00000179  00000+0 -64965-4 0  9992
2 17590  71.0036  66.2701 0007148 243.1957 116.8436 14.17156276  5277
SL-14 R/B               
1 17912U 87038B   25362.49425285  .00000695  00000+0  77901-4 0  9990
2 17912  82.5009   3.8602 0020395  43.5735 316.7087 14.85277021 68666
COSMOS 1844             
1 17973U 87041A   25362.61449329  .00000355  00000+0  20897-3 0  9994
2 17973  70.8974 184.0886 0029293 131.9397 228.4229 14.14534277993533
SL-14 R/B               
1 18153U 87055B   25362.55072883  .00000608  00000+0  67403-4 0  9996
2 18153  82.4988  56.0869 0019273 247.0954 112.8228 14.85537758 59377
COSMOS 1867             
1 18187U 87060A   25362.67119748  .00000023  00000+0  46292-4 0  9998
2 18187  65.0095 145.5878 0013698 272.6659  87.2857 14.31488845  9770
SL-14 R/B               
1 18749U 88001B   25362.47402613  .00000633  00000+0  70381-4 0  9995
2 18749  82.5132 262.3494 0019521 111.9063 248.4231 14.85440712 31454
