CCSDS_OMM_VERS = 2.0
CREATION_DATE  = 
ORIGINATOR     = 

OBJECT_NAME    = SL-14 R/B
OBJECT_ID      = 1986-046B
CENTER_NAME    = EARTH
REF_FRAME      = TEME
TIME_SYSTEM    = UTC
MEAN_ELEMENT_THEORY = SGP/SGP4

EPOCH          = 2025-12-28T09:49:23.388672
MEAN_MOTION    = 14.85502831
ECCENTRICITY   = .00246047
INCLINATION    = 82.4819
RA_OF_ASC_NODE = 147.5156
ARG_OF_PERICENTER = 102.9428
MEAN_ANOMALY   = 257.4538

EPHEMERIS_TYPE = 0
CLASSIFICATION_TYPE = U
NORAD_CAT_ID   = 16792
ELEMENT_SET_NO = 999
REV_AT_EPOCH   = 11582
BSTAR          = .84610943E-4
MEAN_MOTION_DOT = .759E-5
MEAN_MOTION_DDOT = 0

CCSDS_OMM_VERS = 2.0
CREATION_DATE  = 
ORIGINATOR     = 

OBJECT_NAME    = SL-14 R/B
OBJECT_ID      = 1986-055B
CENTER_NAME    = EARTH
REF_FRAME      = TEME
TIME_SYSTEM    = UTC
MEAN_ELEMENT_THEORY = SGP/SGP4

EPOCH          = 2025-12-28T14:38:02.232384
MEAN_MOTION    = 14.85546791
ECCENTRICITY   = .00182785
INCLINATION    = 82.5192
RA_OF_ASC_NODE = 193.4598
ARG_OF_PERICENTER = 203.3589
MEAN_ANOMALY   = 221.3402

EPHEMERIS_TYPE = 0
CLASSIFICATION_TYPE = U
NORAD_CAT_ID   = 16882
ELEMENT_SET_NO = 999
REV_AT_EPOCH   = 10881
BSTAR          = .7246878E-4
MEAN_MOTION_DOT = .652E-5
MEAN_MOTION_DDOT = 0

CCSDS_OMM_VERS = 2.0
CREATION_DATE  = 
ORIGINATOR     = 

OBJECT_NAME    = AJISAI (EGS)
OBJECT_ID      = 1986-061A
CENTER_NAME    = EARTH
REF_FRAME      = TEME
TIME_SYSTEM    = UTC
MEAN_ELEMENT_THEORY = SGP/SGP4

EPOCH          = 2025-12-28T13:46:24.214368
MEAN_MOTION    = 12.44514459
ECCENTRICITY   = .00113171
INCLINATION    = 50.0111
RA_OF_ASC_NODE = 312.0287
ARG_OF_PERICENTER = 105.6137
MEAN_ANOMALY   = 10.1907

EPHEMERIS_TYPE = 0
CLASSIFICATION_TYPE = U
NORAD_CAT_ID   = 16908
ELEMENT_SET_NO = 999
REV_AT_EPOCH   = 45914
BSTAR          = .55814398E-4
MEAN_MOTION_DOT = -.9E-6
MEAN_MOTION_DDOT = 0

CCSDS_OMM_VERS = 2.0
CREATION_DATE  = 
ORIGINATOR     = 

OBJECT_NAME    = COSMOS 1812
OBJECT_ID      = 1987-003A
CENTER_NAME    = EARTH
REF_FRAME      = TEME
TIME_SYSTEM    = UTC
MEAN_ELEMENT_THEORY = SGP/SGP4

EPOCH          = 2025-12-28T05:05:51.793728
MEAN_MOTION    = 15.78858994
ECCENTRICITY   = .0006074
INCLINATION    = 82.4868
RA_OF_ASC_NODE = 275.2295
ARG_OF_PERICENTER = 65.1708
MEAN_ANOMALY   = 295.0189

EPHEMERIS_TYPE = 0
CLASSIFICATION_TYPE = U
NORAD_CAT_ID   = 17295
ELEMENT_SET_NO = 999
REV_AT_EPOCH   = 13309
BSTAR          = .79111E-3
MEAN_MOTION_DOT = .141076E-2
MEAN_MOTION_DDOT = 0

CCSDS_OMM_VERS = 2.0
CREATION_DATE  = 
ORIGINATOR     = 

OBJECT_NAME    = SL-14 R/B
OBJECT_ID      = 1987-024B
CENTER_NAME    = EARTH
REF_FRAME      = TEME
TIME_SYSTEM    = UTC
MEAN_ELEMENT_THEORY = SGP/SGP4

EPOCH          = 2025-12-28T11:14:44.001312
MEAN_MOTION    = 14.86042010
ECCENTRICITY   = .00193346
INCLINATION    = 82.5282
RA_OF_ASC_NODE = 159.6786
ARG_OF_PERICENTER = 133.5151
MEAN_ANOMALY   = 226.7676

EPHEMERIS_TYPE = 0
CLASSIFICATION_TYPE = U
NORAD_CAT_ID   = 17567
ELEMENT_SET_NO = 999
REV_AT_EPOCH   = 7755
BSTAR          = .88300493E-4
MEAN_MOTION_DOT = .799E-5
MEAN_MOTION_DDOT = 0

CCSDS_OMM_VERS = 2.0
CREATION_DATE  = 
ORIGINATOR     = 

OBJECT_NAME    = COSMOS 1833
OBJECT_ID      = 1987-027A
CENTER_NAME    = EARTH
REF_FRAME      = TEME
TIME_SYSTEM    = UTC
MEAN_ELEMENT_THEORY = SGP/SGP4

EPOCH          = 2025-12-28T15:29:52.305792
MEAN_MOTION    = 14.13030611
ECCENTRICITY   = .00232818
INCLINATION    = 70.9170
RA_OF_ASC_NODE = 115.3413
ARG_OF_PERICENTER = 309.5868
MEAN_ANOMALY   = 50.3197

EPHEMERIS_TYPE = 0
CLASSIFICATION_TYPE = U
NORAD_CAT_ID   = 17589
ELEMENT_SET_NO = 999
REV_AT_EPOCH   = 28
BSTAR          = .19424449E-3
MEAN_MOTION_DOT = .315E-5
MEAN_MOTION_DDOT = 0

CCSDS_OMM_VERS = 2.0
CREATION_DATE  = 
ORIGINATOR     = 

OBJECT_NAME    = SL-16 R/B
OBJECT_ID      = 1987-027B
CENTER_NAME    = EARTH
REF_FRAME      = TEME
TIME_SYSTEM    = UTC
MEAN_ELEMENT_THEORY = SGP/SGP4

EPOCH          = 2025-12-28T14:43:26.619456
MEAN_MOTION    = 14.17156276
ECCENTRICITY   = .00071489
INCLINATION    = 71.0036
RA_OF_ASC_NODE = 66.2701
ARG_OF_PERICENTER = 243.1957
MEAN_ANOMALY   = 116.8436

EPHEMERIS_TYPE = 0
CLASSIFICATION_TYPE = U
NORAD_CAT_ID   = 17590
ELEMENT_SET_NO = 999
REV_AT_EPOCH   = 527
BSTAR          = -.64965362E-4
MEAN_MOTION_DOT = -.179E-5
MEAN_MOTION_DDOT = 0

CCSDS_OMM_VERS = 2.0
CREATION_DATE  = 
ORIGINATOR     = 

OBJECT_NAME    = SL-14 R/B
OBJECT_ID      = 1987-038B
CENTER_NAME    = EARTH
REF_FRAME      = TEME
TIME_SYSTEM    = UTC
MEAN_ELEMENT_THEORY = SGP/SGP4

EPOCH          = 2025-12-28T11:51:43.446240
MEAN_MOTION    = 14.85277021
ECCENTRICITY   = .00203954
INCLINATION    = 82.5009
RA_OF_ASC_NODE = 3.8602
ARG_OF_PERICENTER = 43.5735
MEAN_ANOMALY   = 316.7087

EPHEMERIS_TYPE = 0
CLASSIFICATION_TYPE = U
NORAD_CAT_ID   = 17912
ELEMENT_SET_NO = 999
REV_AT_EPOCH   = 6866
BSTAR          = .7790062E-4
MEAN_MOTION_DOT = .695E-5
MEAN_MOTION_DDOT = 0

CCSDS_OMM_VERS = 2.0
CREATION_DATE  = 
ORIGINATOR     = 

OBJECT_NAME    = COSMOS 1844
OBJECT_ID      = 1987-041A
CENTER_NAME    = EARTH
REF_FRAME      = TEME
TIME_SYSTEM    = UTC
MEAN_ELEMENT_THEORY = SGP/SGP4

EPOCH          = 2025-12-28T14:44:52.220256
MEAN_MOTION    = 14.14534277
ECCENTRICITY   = .00292933
INCLINATION    = 70.8974
RA_OF_ASC_NODE = 184.0886
ARG_OF_PERICENTER = 131.9397
MEAN_ANOMALY   = 228.4229

EPHEMERIS_TYPE = 0
CLASSIFICATION_TYPE = U
NORAD_CAT_ID   = 17973
ELEMENT_SET_NO = 999
REV_AT_EPOCH   = 99353
BSTAR          = .20897393E-3
MEAN_MOTION_DOT = .355E-5
MEAN_MOTION_DDOT = 0

CCSDS_OMM_VERS = 2.0
CREATION_DATE  = 
ORIGINATOR     = 

OBJECT_NAME    = SL-14 R/B
OBJECT_ID      = 1987-055B
CENTER_NAME    = EARTH
REF_FRAME      = TEME
TIME_SYSTEM    = UTC
MEAN_ELEMENT_THEORY = SGP/SGP4

EPOCH          = 2025-12-28T13:13:02.970912
MEAN_MOTION    = 14.85537758
ECCENTRICITY   = .0019273
INCLINATION    = 82.4988
RA_OF_ASC_NODE = 56.0869
ARG_OF_PERICENTER = 247.0954
MEAN_ANOMALY   = 112.8228

EPHEMERIS_TYPE = 0
CLASSIFICATION_TYPE = U
NORAD_CAT_ID   = 18153
ELEMENT_SET_NO = 999
REV_AT_EPOCH   = 5937
BSTAR          = .67403104E-4
MEAN_MOTION_DOT = .608E-5
MEAN_MOTION_DDOT = 0

CCSDS_OMM_VERS = 2.0
CREATION_DATE  = 
ORIGINATOR     = 

OBJECT_NAME    = COSMOS 1867
OBJECT_ID      = 1987-060A
CENTER_NAME    = EARTH
REF_FRAME      = TEME
TIME_SYSTEM    = UTC
MEAN_ELEMENT_THEORY = SGP/SGP4

EPOCH          = 2025-12-28T16:06:31.462272
MEAN_MOTION    = 14.31488845
ECCENTRICITY   = .00136982
INCLINATION    = 65.0095
RA_OF_ASC_NODE = 145.5878
ARG_OF_PERICENTER = 272.6659
MEAN_ANOMALY   = 87.2857

EPHEMERIS_TYPE = 0
CLASSIFICATION_TYPE = U
NORAD_CAT_ID   = 18187
ELEMENT_SET_NO = 999
REV_AT_EPOCH   = 977
BSTAR          = .46292497E-4
MEAN_MOTION_DOT = .23E-6
MEAN_MOTION_DDOT = 0

CCSDS_OMM_VERS = 2.0
CREATION_DATE  = 
ORIGINATOR     = 

OBJECT_NAME    = SL-14 R/B
OBJECT_ID      = 1988-001B
CENTER_NAME    = EARTH
REF_FRAME      = TEME
TIME_SYSTEM    = UTC
MEAN_ELEMENT_THEORY = SGP/SGP4

EPOCH          = 2025-12-28T11:22:35.857632
MEAN_MOTION    = 14.85440712
ECCENTRICITY   = .00195212
INCLINATION    = 82.5132
RA_OF_ASC_NODE = 262.3494
ARG_OF_PERICENTER = 111.9063
MEAN_ANOMALY   = 248.4231

EPHEMERIS_TYPE = 0
CLASSIFICATION_TYPE = U
NORAD_CAT_ID   = 18749
ELEMENT_SET_NO = 999
REV_AT_EPOCH   = 3145
BSTAR          = .70381016E-4
MEAN_MOTION_DOT = .633E-5
MEAN_MOTION_DDOT = 0

